[{"OBJECT_NAME":"DAMPE","OBJECT_ID":"2015-078A","EPOCH":"2026-03-09T23:55:00.527232","MEAN_MOTION":15.30502084,"ECCENTRICITY":0.00138005,"INCLINATION":97.4588,"RA_OF_ASC_NODE":73.9866,"ARG_OF_PERICENTER":70.6942,"MEAN_ANOMALY":289.579,"EPHEMERIS_TYPE":0,"CLASSIFICATION_TYPE":"U","NORAD_CAT_ID":41173,"ELEMENT_SET_NO":999,"REV_AT_EPOCH":56937,"BSTAR":9.1158173e-5,"MEAN_MOTION_DOT":2.617e-5,"MEAN_MOTION_DDOT":0},{"OBJECT_NAME":"STARLINK-30147","OBJECT_ID":"2023-113S","EPOCH":"2026-03-09T22:00:01.999584","MEAN_MOTION":15.26744246,"ECCENTRICITY":0.00013727,"INCLINATION":43.0009,"RA_OF_ASC_NODE":14.5565,"ARG_OF_PERICENTER":257.7385,"MEAN_ANOMALY":66.4463,"EPHEMERIS_TYPE":0,"CLASSIFICATION_TYPE":"U","NORAD_CAT_ID":57511,"ELEMENT_SET_NO":999,"REV_AT_EPOCH":563,"BSTAR":0.00039659737,"MEAN_MOTION_DOT":0.00010395,"MEAN_MOTION_DDOT":0}]
